CSS (TIANHE)            
1 48274U 21035A   23360.86221207  .00041690  00000+0  42681-3 0  9991
2 48274  41.4715  62.0549 0006091  66.8427 293.3054 15.64188584151962
